LANDSAT 9               
1 49260U 21088A   24184.75865373  .00000733  00000+0  17295-3 0  9992
2 49260  98.2313 254.1420 0001354  94.6918 265.4434 14.57083914146963
